TIANMU-1 08             
1 57400U 23101B   26066.00237819  .00000346  00000+0  14775-4 0  9993
2 57400  97.2717 118.7901 0006380 134.2174 225.9592 15.29204229146020
STARLINK-34157          
1 64084U 25107W   26068.43183739  .00026726  00000+0  97682-3 0  9994
2 64084  42.9983 202.7687 0001566 199.7277 160.3514 15.27592506 46069
